{"type": "FeatureCollection", "features": [ {"type": "Feature", "properties": {"norad_id": 34375, "name": "IRIDIUM 33 DEB", "group": "iridium-33-debris", "lat": 14.281356533607065, "lon": 1.4018003838503021, "alt_km": 777.3324543692725, "timestamp": "2025-12-13T16:48:33.094581+00:00", "meta": {"OBJECT_NAME": "IRIDIUM 33 DEB", "OBJECT_ID": "1997-051FT", "EPOCH": "2025-12-12T23:49:03.895680", "MEAN_MOTION": 14.17992706, "ECCENTRICITY": 0.01033277, "INCLINATION": 86.4327, "RA_OF_ASC_NODE": 182.597, "ARG_OF_PERICENTER": 125.9322, "MEAN_ANOMALY": 27.0467, "EPHEMERIS_TYPE": 0, "CLASSIFICATION_TYPE": "U", "NORAD_CAT_ID": 34375, "ELEMENT_SET_NO": 999, "REV_AT_EPOCH": 86715, "BSTAR": 0.00059451222, "MEAN_MOTION_DOT": 1.302e-05, "MEAN_MOTION_DDOT": 0}, "tle": {"line1": "1 34375U 97051FT  25346.99240620  .00001302  00000+0  59451-3 0  9998", "line2": "2 34375  86.4327 182.5970 0103327 125.9322  27.0467 14.17992706867155"}}, "geometry": {"type": "Point", "coordinates": [1.4018003838503021, 14.281356533607065]}}, {"type": "Feature", "properties": {"norad_id": 34376, "name": "IRIDIUM 33 DEB", "group": "iridium-33-debris", "lat": -28.870225429981353, "lon": 4.06318279763784, "alt_km": 709.5609589634623, "timestamp": "2025-12-13T16:48:33.094592+00:00", "meta": {"OBJECT_NAME": "IRIDIUM 33 DEB", "OBJECT_ID": "1997-051FU", "EPOCH": "2025-12-12T19:35:45.071232", "MEAN_MOTION": 14.62570481, "ECCENTRICITY": 0.00271711, "INCLINATION": 86.2989, "RA_OF_ASC_NODE": 6.5056, "ARG_OF_PERICENTER": 166.3978, "MEAN_ANOMALY": 193.7972, "EPHEMERIS_TYPE": 0, "CLASSIFICATION_TYPE": "U", "NORAD_CAT_ID": 34376, "ELEMENT_SET_NO": 999, "REV_AT_EPOCH": 88008, "BSTAR": 0.0020216888, "MEAN_MOTION_DOT": 0.00010344, "MEAN_MOTION_DDOT": 0}, "tle": {"line1": "1 34376U 97051FU  25346.81649388  .00010344  00000+0  20217-2 0  9997", "line2": "2 34376  86.2989   6.5056 0027171 166.3978 193.7972 14.62570481880087"}}, "geometry": {"type": "Point", "coordinates": [4.06318279763784, -28.870225429981353]}}, {"type": "Feature", "properties": {"norad_id": 34486, "name": "IRIDIUM 33 DEB", "group": "iridium-33-debris", "lat": -57.39341997476837, "lon": 5.92404139650479, "alt_km": 596.1589636462504, "timestamp": "2025-12-13T16:48:33.094602+00:00", "meta": {"OBJECT_NAME": "IRIDIUM 33 DEB", "OBJECT_ID": "1997-051GB", "EPOCH": "2025-12-12T20:43:41.056032", "MEAN_MOTION": 14.95813552, "ECCENTRICITY": 0.00136453, "INCLINATION": 86.394, "RA_OF_ASC_NODE": 11.9677, "ARG_OF_PERICENTER": 113.2535, "MEAN_ANOMALY": 6.5669, "EPHEMERIS_TYPE": 0, "CLASSIFICATION_TYPE": "U", "NORAD_CAT_ID": 34486, "ELEMENT_SET_NO": 999, "REV_AT_EPOCH": 88988, "BSTAR": 0.0029287104, "MEAN_MOTION_DOT": 0.0003288, "MEAN_MOTION_DDOT": 0}, "tle": {"line1": "1 34486U 97051GB  25346.86366963  .00032880  00000+0  29287-2 0  9994", "line2": "2 34486  86.3940  11.9677 0013645 113.2535   6.5669 14.95813552889883"}}, "geometry": {"type": "Point", "coordinates": [5.92404139650479, -57.39341997476837]}}, {"type": "Feature", "properties": {"norad_id": 34487, "name": "IRIDIUM 33 DEB", "group": "iridium-33-debris", "lat": 43.5416584583872, "lon": -171.5203597621658, "alt_km": 721.413040000597, "timestamp": "2025-12-13T16:48:33.094613+00:00", "meta": {"OBJECT_NAME": "IRIDIUM 33 DEB", "OBJECT_ID": "1997-051GC", "EPOCH": "2025-12-12T20:46:06.073248", "MEAN_MOTION": 14.43216615, "ECCENTRICITY": 0.00327589, "INCLINATION": 86.3434, "RA_OF_ASC_NODE": 12.3232, "ARG_OF_PERICENTER": 127.97, "MEAN_ANOMALY": 352.4945, "EPHEMERIS_TYPE": 0, "CLASSIFICATION_TYPE": "U", "NORAD_CAT_ID": 34487, "ELEMENT_SET_NO": 999, "REV_AT_EPOCH": 88250, "BSTAR": 0.00028346709, "MEAN_MOTION_DOT": 9.79e-06, "MEAN_MOTION_DDOT": 0}, "tle": {"line1": "1 34487U 97051GC  25346.86534807  .00000979  00000+0  28347-3 0  9990", "line2": "2 34487  86.3434  12.3232 0032758 127.9700 352.4945 14.43216615882508"}}, "geometry": {"type": "Point", "coordinates": [-171.5203597621658, 43.5416584583872]}}, {"type": "Feature", "properties": {"norad_id": 34488, "name": "IRIDIUM 33 DEB", "group": "iridium-33-debris", "lat": 42.12609499357133, "lon": -51.32829410664975, "alt_km": 464.15549839620235, "timestamp": "2025-12-13T16:48:33.094624+00:00", "meta": {"OBJECT_NAME": "IRIDIUM 33 DEB", "OBJECT_ID": "1997-051GD", "EPOCH": "2025-12-12T09:13:17.706144", "MEAN_MOTION": 15.29287842, "ECCENTRICITY": 0.0013375, "INCLINATION": 86.3234, "RA_OF_ASC_NODE": 305.9899, "ARG_OF_PERICENTER": 52.1887, "MEAN_ANOMALY": 308.0569, "EPHEMERIS_TYPE": 0, "CLASSIFICATION_TYPE": "U", "NORAD_CAT_ID": 34488, "ELEMENT_SET_NO": 999, "REV_AT_EPOCH": 89234, "BSTAR": 0.0061124826, "MEAN_MOTION_DOT": 0.00177845, "MEAN_MOTION_DDOT": 0}, "tle": {"line1": "1 34488U 97051GD  25346.38423271  .00177845  00000+0  61125-2 0  9997", "line2": "2 34488  86.3234 305.9899 0013375  52.1887 308.0569 15.29287842892343"}}, "geometry": {"type": "Point", "coordinates": [-51.32829410664975, 42.12609499357133]}}, {"type": "Feature", "properties": {"norad_id": 34492, "name": "IRIDIUM 33 DEB", "group": "iridium-33-debris", "lat": 16.26994501051358, "lon": 153.20925612450202, "alt_km": 761.186990330867, "timestamp": "2025-12-13T16:48:33.094634+00:00", "meta": {"OBJECT_NAME": "IRIDIUM 33 DEB", "OBJECT_ID": "1997-051GH", "EPOCH": "2025-12-12T23:19:24.163680", "MEAN_MOTION": 14.25737057, "ECCENTRICITY": 0.01891196, "INCLINATION": 86.4723, "RA_OF_ASC_NODE": 334.5351, "ARG_OF_PERICENTER": 237.4159, "MEAN_ANOMALY": 151.0038, "EPHEMERIS_TYPE": 0, "CLASSIFICATION_TYPE": "U", "NORAD_CAT_ID": 34492, "ELEMENT_SET_NO": 999, "REV_AT_EPOCH": 85062, "BSTAR": 0.0063651158, "MEAN_MOTION_DOT": 0.00018276, "MEAN_MOTION_DDOT": 0}, "tle": {"line1": "1 34492U 97051GH  25346.97180745  .00018276  00000+0  63651-2 0  9991", "line2": "2 34492  86.4723 334.5351 0189119 237.4159 151.0038 14.25737057850628"}}, "geometry": {"type": "Point", "coordinates": [153.20925612450202, 16.26994501051358]}}, {"type": "Feature", "properties": {"norad_id": 34497, "name": "IRIDIUM 33 DEB", "group": "iridium-33-debris", "lat": 50.54283624663588, "lon": 56.52734356020785, "alt_km": 779.9405807760068, "timestamp": "2025-12-13T16:48:33.094644+00:00", "meta": {"OBJECT_NAME": "IRIDIUM 33 DEB", "OBJECT_ID": "1997-051GN", "EPOCH": "2025-12-12T22:54:15.485760", "MEAN_MOTION": 14.27454952, "ECCENTRICITY": 0.00787666, "INCLINATION": 86.2781, "RA_OF_ASC_NODE": 52.31, "ARG_OF_PERICENTER": 338.886, "MEAN_ANOMALY": 199.6428, "EPHEMERIS_TYPE": 0, "CLASSIFICATION_TYPE": "U", "NORAD_CAT_ID": 34497, "ELEMENT_SET_NO": 999, "REV_AT_EPOCH": 86886, "BSTAR": 0.00092375245, "MEAN_MOTION_DOT": 2.36e-05, "MEAN_MOTION_DDOT": 0}, "tle": {"line1": "1 34497U 97051GN  25346.95434590  .00002360  00000+0  92375-3 0  9997", "line2": "2 34497  86.2781  52.3100 0078766 338.8860 199.6428 14.27454952868860"}}, "geometry": {"type": "Point", "coordinates": [56.52734356020785, 50.54283624663588]}}, {"type": "Feature", "properties": {"norad_id": 34508, "name": "IRIDIUM 33 DEB", "group": "iridium-33-debris", "lat": -66.36487777171122, "lon": -69.42276043087732, "alt_km": 759.8594295958246, "timestamp": "2025-12-13T16:48:33.094655+00:00", "meta": {"OBJECT_NAME": "IRIDIUM 33 DEB", "OBJECT_ID": "1997-051GZ", "EPOCH": "2025-12-12T17:57:57.853728", "MEAN_MOTION": 14.3842932, "ECCENTRICITY": 0.00660592, "INCLINATION": 86.3696, "RA_OF_ASC_NODE": 102.6391, "ARG_OF_PERICENTER": 172.9661, "MEAN_ANOMALY": 187.2481, "EPHEMERIS_TYPE": 0, "CLASSIFICATION_TYPE": "U", "NORAD_CAT_ID": 34508, "ELEMENT_SET_NO": 999, "REV_AT_EPOCH": 87309, "BSTAR": 0.002129503, "MEAN_MOTION_DOT": 6.683e-05, "MEAN_MOTION_DDOT": 0}, "tle": {"line1": "1 34508U 97051GZ  25346.74858627  .00006683  00000+0  21295-2 0  9992", "line2": "2 34508  86.3696 102.6391 0066059 172.9661 187.2481 14.38429320873094"}}, "geometry": {"type": "Point", "coordinates": [-69.42276043087732, -66.36487777171122]}}, {"type": "Feature", "properties": {"norad_id": 34521, "name": "IRIDIUM 33 DEB", "group": "iridium-33-debris", "lat": 30.119565901523302, "lon": -151.97929248989283, "alt_km": 680.2741858031522, "timestamp": "2025-12-13T16:48:33.094665+00:00", "meta": {"OBJECT_NAME": "IRIDIUM 33 DEB", "OBJECT_ID": "1997-051HN", "EPOCH": "2025-12-12T20:26:01.801536", "MEAN_MOTION": 14.6337022, "ECCENTRICITY": 0.00015553, "INCLINATION": 86.3804, "RA_OF_ASC_NODE": 30.4988, "ARG_OF_PERICENTER": 212.1757, "MEAN_ANOMALY": 147.936, "EPHEMERIS_TYPE": 0, "CLASSIFICATION_TYPE": "U", "NORAD_CAT_ID": 34521, "ELEMENT_SET_NO": 999, "REV_AT_EPOCH": 88474, "BSTAR": 0.0012860068, "MEAN_MOTION_DOT": 6.666e-05, "MEAN_MOTION_DDOT": 0}, "tle": {"line1": "1 34521U 97051HN  25346.85140974  .00006666  00000+0  12860-2 0  9997", "line2": "2 34521  86.3804  30.4988 0001555 212.1757 147.9360 14.63370220884748"}}, "geometry": {"type": "Point", "coordinates": [-151.97929248989283, 30.119565901523302]}}, {"type": "Feature", "properties": {"norad_id": 34525, "name": "IRIDIUM 33 DEB", "group": "iridium-33-debris", "lat": -77.5965649592937, "lon": -116.80349053389314, "alt_km": 760.9335433773358, "timestamp": "2025-12-13T16:48:33.094675+00:00", "meta": {"OBJECT_NAME": "IRIDIUM 33 DEB", "OBJECT_ID": "1997-051HS", "EPOCH": "2025-12-12T15:21:36.053568", "MEAN_MOTION": 14.42905953, "ECCENTRICITY": 0.00066523, "INCLINATION": 86.373, "RA_OF_ASC_NODE": 46.8862, "ARG_OF_PERICENTER": 95.5071, "MEAN_ANOMALY": 57.9637, "EPHEMERIS_TYPE": 0, "CLASSIFICATION_TYPE": "U", "NORAD_CAT_ID": 34525, "ELEMENT_SET_NO": 999, "REV_AT_EPOCH": 88086, "BSTAR": 0.00058911832, "MEAN_MOTION_DOT": 1.988e-05, "MEAN_MOTION_DDOT": 0}, "tle": {"line1": "1 34525U 97051HS  25346.64000062  .00001988  00000+0  58912-3 0  9992", "line2": "2 34525  86.3730  46.8862 0006652  95.5071  57.9637 14.42905953880867"}}, "geometry": {"type": "Point", "coordinates": [-116.80349053389314, -77.5965649592937]}}]}